[
    {
        "id": 0,
        "cuit": 123,
        "name": "Almacen Sir Cokoc",
        "address": "Mate de Luna 123",
        "email": "sircokoc@gmail.com",
        "phone": "4389593",
        "cellphone": "3813768594",
        "opening_hours": "9 - 15 hs",
        "accepts_credit": true,
        "accepts_debit": true,
        "category_id": 0
    },
    {
        "id": 1,
        "cuit": 123,
        "name": "Almacen Pepe",
        "address": "Belgrano 123",
        "email": "almacenpepe@gmail.com",
        "phone": "4585849",
        "cellphone": "3813059384",
        "opening_hours": "9 - 15 hs",
        "accepts_credit": true,
        "accepts_debit": true,
        "category_id": 0
    },
    {
        "id": 2,
        "cuit": 123,
        "name": "Almacen San Javier",
        "address": "San Martin 123",
        "email": "sanjavier@gmail.com",
        "phone": "4392837",
        "cellphone": "3813304958",
        "opening_hours": "9 - 15 hs",
        "accepts_credit": true,
        "accepts_debit": true,
        "category_id": 0
    },
    {
        "id": 3,
        "cuit": 123,
        "name": "Almacen Fernando",
        "address": "Laprida 123",
        "email": "fernando@gmail.com",
        "phone": "4392837",
        "cellphone": "3814494959",
        "opening_hours": "9 - 15 hs",
        "accepts_credit": true,
        "accepts_debit": true,
        "category_id": 0
    },
    {
        "id": 4,
        "cuit": 123,
        "name": "Almacen Moe",
        "address": "Rivadavia 123",
        "email": "moe@gmail.com",
        "phone": "4392837",
        "cellphone": "3814593849",
        "opening_hours": "9 - 15 hs",
        "accepts_credit": true,
        "accepts_debit": true,
        "category_id": 0
    }
]